{
  "type": "FeatureCollection",
  "features": [
    {
      "type": "Feature",
      "properties": {
        "norad_id": 34070,
        "name": "COSMOS 2251 DEB",
        "group": "cosmos-2251-debris",
        "lat": -69.82153507430839,
        "lon": -29.42790985904486,
        "alt_km": 635.3303446090058,
        "timestamp": "2025-12-21T09:37:23.048597+00:00",
        "meta_object_name": "COSMOS 2251 DEB",
        "meta_object_id": "1993-036KH",
        "meta_epoch": "2025-12-20T18:23:42.271872",
        "meta_mean_motion": 14.77272357,
        "meta_eccentricity": 0.0018175,
        "meta_inclination": 74.001,
        "meta_ra_of_asc_node": 100.4913,
        "meta_arg_of_pericenter": 216.9964,
        "meta_mean_anomaly": 267.3955,
        "meta_ephemeris_type": 0,
        "meta_classification_type": "U",
        "meta_norad_cat_id": 34070,
        "meta_element_set_no": 999,
        "meta_rev_at_epoch": 88729,
        "meta_bstar": 0.0014816,
        "meta_mean_motion_dot": 0.00010522,
        "meta_mean_motion_ddot": 0,
        "tle_line1": "1 34070U 93036KH  25354.76646148  .00010522  00000+0  14816-2 0  9997",
        "tle_line2": "2 34070  74.0010 100.4913 0018175 216.9964 267.3955 14.77272357887291"
      },
      "geometry": {
        "type": "Point",
        "coordinates": [
          -29.42790985904486,
          -69.82153507430839
        ]
      }
    },
    {
      "type": "Feature",
      "properties": {
        "norad_id": 34114,
        "name": "COSMOS 2251 DEB",
        "group": "cosmos-2251-debris",
        "lat": 0.16951762774394474,
        "lon": -152.6288697947872,
        "alt_km": 739.1705415525603,
        "timestamp": "2025-12-21T09:37:23.048607+00:00",
        "meta_object_name": "COSMOS 2251 DEB",
        "meta_object_id": "1993-036KK",
        "meta_epoch": "2025-12-21T04:09:10.752768",
        "meta_mean_motion": 14.56477831,
        "meta_eccentricity": 0.0047891,
        "meta_inclination": 74.0582,
        "meta_ra_of_asc_node": 27.8513,
        "meta_arg_of_pericenter": 19.5405,
        "meta_mean_anomaly": 45.4164,
        "meta_ephemeris_type": 0,
        "meta_classification_type": "U",
        "meta_norad_cat_id": 34114,
        "meta_element_set_no": 999,
        "meta_rev_at_epoch": 87924,
        "meta_bstar": 0.0010113,
        "meta_mean_motion_dot": 4.54e-05,
        "meta_mean_motion_ddot": 0,
        "tle_line1": "1 34114U 93036KK  25355.17304112  .00004540  00000+0  10113-2 0  9993",
        "tle_line2": "2 34114  74.0582  27.8513 0047891  19.5405  45.4164 14.56477831879240"
      },
      "geometry": {
        "type": "Point",
        "coordinates": [
          -152.6288697947872,
          0.16951762774394474
        ]
      }
    },
    {
      "type": "Feature",
      "properties": {
        "norad_id": 34115,
        "name": "COSMOS 2251 DEB",
        "group": "cosmos-2251-debris",
        "lat": -62.978441400950054,
        "lon": -169.35919629800424,
        "alt_km": 645.5429052631653,
        "timestamp": "2025-12-21T09:37:23.048617+00:00",
        "meta_object_name": "COSMOS 2251 DEB",
        "meta_object_id": "1993-036KL",
        "meta_epoch": "2025-12-21T01:48:56.071008",
        "meta_mean_motion": 14.79588489,
        "meta_eccentricity": 0.0028882,
        "meta_inclination": 74.0056,
        "meta_ra_of_asc_node": 225.5052,
        "meta_arg_of_pericenter": 46.5367,
        "meta_mean_anomaly": 313.8204,
        "meta_ephemeris_type": 0,
        "meta_classification_type": "U",
        "meta_norad_cat_id": 34115,
        "meta_element_set_no": 999,
        "meta_rev_at_epoch": 89535,
        "meta_bstar": 0.00054963,
        "meta_mean_motion_dot": 4.114e-05,
        "meta_mean_motion_ddot": 0,
        "tle_line1": "1 34115U 93036KL  25355.07564897  .00004114  00000+0  54963-3 0  9990",
        "tle_line2": "2 34115  74.0056 225.5052 0028882  46.5367 313.8204 14.79588489895352"
      },
      "geometry": {
        "type": "Point",
        "coordinates": [
          -169.35919629800424,
          -62.978441400950054
        ]
      }
    },
    {
      "type": "Feature",
      "properties": {
        "norad_id": 34116,
        "name": "COSMOS 2251 DEB",
        "group": "cosmos-2251-debris",
        "lat": 29.945030892438744,
        "lon": -23.050431839455058,
        "alt_km": 714.4689714423239,
        "timestamp": "2025-12-21T09:37:23.048627+00:00",
        "meta_object_name": "COSMOS 2251 DEB",
        "meta_object_id": "1993-036KM",
        "meta_epoch": "2025-12-20T21:56:14.930880",
        "meta_mean_motion": 14.53019784,
        "meta_eccentricity": 0.0011849,
        "meta_inclination": 74.0395,
        "meta_ra_of_asc_node": 167.3571,
        "meta_arg_of_pericenter": 243.4697,
        "meta_mean_anomaly": 239.4227,
        "meta_ephemeris_type": 0,
        "meta_classification_type": "U",
        "meta_norad_cat_id": 34116,
        "meta_element_set_no": 999,
        "meta_rev_at_epoch": 88605,
        "meta_bstar": 0.0005456,
        "meta_mean_motion_dot": 2.227e-05,
        "meta_mean_motion_ddot": 0,
        "tle_line1": "1 34116U 93036KM  25354.91406170  .00002227  00000+0  54560-3 0  9998",
        "tle_line2": "2 34116  74.0395 167.3571 0011849 243.4697 239.4227 14.53019784886051"
      },
      "geometry": {
        "type": "Point",
        "coordinates": [
          -23.050431839455058,
          29.945030892438744
        ]
      }
    },
    {
      "type": "Feature",
      "properties": {
        "norad_id": 34117,
        "name": "COSMOS 2251 DEB",
        "group": "cosmos-2251-debris",
        "lat": -63.56379229903148,
        "lon": -67.3162712353887,
        "alt_km": 778.6455559986016,
        "timestamp": "2025-12-21T09:37:23.048638+00:00",
        "meta_object_name": "COSMOS 2251 DEB",
        "meta_object_id": "1993-036KN",
        "meta_epoch": "2025-12-21T04:56:19.228704",
        "meta_mean_motion": 14.40041831,
        "meta_eccentricity": 0.0054904,
        "meta_inclination": 74.0394,
        "meta_ra_of_asc_node": 328.1863,
        "meta_arg_of_pericenter": 42.1555,
        "meta_mean_anomaly": 318.3802,
        "meta_ephemeris_type": 0,
        "meta_classification_type": "U",
        "meta_norad_cat_id": 34117,
        "meta_element_set_no": 999,
        "meta_rev_at_epoch": 88245,
        "meta_bstar": 0.00046655,
        "meta_mean_motion_dot": 1.471e-05,
        "meta_mean_motion_ddot": 0,
        "tle_line1": "1 34117U 93036KN  25355.20577811  .00001471  00000+0  46655-3 0  9999",
        "tle_line2": "2 34117  74.0394 328.1863 0054904  42.1555 318.3802 14.40041831882458"
      },
      "geometry": {
        "type": "Point",
        "coordinates": [
          -67.3162712353887,
          -63.56379229903148
        ]
      }
    },
    {
      "type": "Feature",
      "properties": {
        "norad_id": 34118,
        "name": "COSMOS 2251 DEB",
        "group": "cosmos-2251-debris",
        "lat": -62.4043016049095,
        "lon": 85.18955881770182,
        "alt_km": 633.1522094290294,
        "timestamp": "2025-12-21T09:37:23.048648+00:00",
        "meta_object_name": "COSMOS 2251 DEB",
        "meta_object_id": "1993-036KP",
        "meta_epoch": "2025-12-21T00:59:57.709824",
        "meta_mean_motion": 14.94198698,
        "meta_eccentricity": 0.0060079,
        "meta_inclination": 73.9516,
        "meta_ra_of_asc_node": 232.5004,
        "meta_arg_of_pericenter": 60.6229,
        "meta_mean_anomaly": 54.65,
        "meta_ephemeris_type": 0,
        "meta_classification_type": "U",
        "meta_norad_cat_id": 34118,
        "meta_element_set_no": 999,
        "meta_rev_at_epoch": 89300,
        "meta_bstar": 0.00094567,
        "meta_mean_motion_dot": 0.00010477,
        "meta_mean_motion_ddot": 0,
        "tle_line1": "1 34118U 93036KP  25355.04164016  .00010477  00000+0  94567-3 0  9992",
        "tle_line2": "2 34118  73.9516 232.5004 0060079  60.6229  54.6500 14.94198698893002"
      },
      "geometry": {
        "type": "Point",
        "coordinates": [
          85.18955881770182,
          -62.4043016049095
        ]
      }
    },
    {
      "type": "Feature",
      "properties": {
        "norad_id": 34120,
        "name": "COSMOS 2251 DEB",
        "group": "cosmos-2251-debris",
        "lat": -22.655969333994115,
        "lon": 28.10125577884709,
        "alt_km": 1035.7524612362404,
        "timestamp": "2025-12-21T09:37:23.048658+00:00",
        "meta_object_name": "COSMOS 2251 DEB",
        "meta_object_id": "1993-036KR",
        "meta_epoch": "2025-12-21T00:50:49.320384",
        "meta_mean_motion": 13.9869252,
        "meta_eccentricity": 0.0182311,
        "meta_inclination": 73.9903,
        "meta_ra_of_asc_node": 201.8516,
        "meta_arg_of_pericenter": 27.692,
        "meta_mean_anomaly": 135.1651,
        "meta_ephemeris_type": 0,
        "meta_classification_type": "U",
        "meta_norad_cat_id": 34120,
        "meta_element_set_no": 999,
        "meta_rev_at_epoch": 86096,
        "meta_bstar": 0.00023925,
        "meta_mean_motion_dot": 3.73e-06,
        "meta_mean_motion_ddot": 0,
        "tle_line1": "1 34120U 93036KR  25355.03529306  .00000373  00000+0  23925-3 0  9995",
        "tle_line2": "2 34120  73.9903 201.8516 0182311  27.6920 135.1651 13.98692520860964"
      },
      "geometry": {
        "type": "Point",
        "coordinates": [
          28.10125577884709,
          -22.655969333994115
        ]
      }
    }
  ]
}